KUIPER-00089            
1 64834U 25151U   25362.02566010 -.00000394  00000+0 -22619-4 0  9998
2 64834  51.9013 242.4837 0002151 104.1279 255.9922 14.79946134 24906
KUIPER-00090            
1 64835U 25151V   25362.05515982  .00004312  00000+0  64121-3 0  9999
2 64835  51.8967 234.4251 0004681 108.8705 251.2764 14.76661926 25016
KUIPER-00091            
1 64836U 25151W   25362.36608688  .00005018  00000+0  68680-3 0  9998
2 64836  51.8993 238.4866 0008587  62.4336 297.7497 14.79925263 24989
KUIPER-00092            
1 64837U 25151X   25362.42546807 -.00009310  00000+0 -11948-2 0  9995
2 64837  51.8998 245.7208 0003135  46.5380 313.5843 14.79892352 26102
KUIPER-00093            
1 64838U 25151Y   25362.08514551 -.00024531  00000+0 -31951-2 0  9997
2 64838  51.8999 249.7121 0002704  50.8775 309.2428 14.79999434 24804
KUIPER-00094            
1 64839U 25151Z   25362.06416304  .00010985  00000+0  78340-3 0  9993
2 64839  51.8886 231.8466 0004471  44.9311 315.2024 15.05001118 25057
KUIPER-00081            
1 65132U 25171A   25362.50002315 -.00032347  00000+0 -36958-2 0  9990
2 65132  51.8991 103.0882 0002377 332.4382  29.8766 14.85559142  5364
KUIPER-00088            
1 65133U 25171B   25362.50648300  .00004062  00000+0  60418-3 0  9991
2 65133  51.8992 120.8397 0007601 241.5501 118.4695 14.76777473 22243
